{
    "links": {
        "self": "http://www.neowsapp.com/rest/v1/neo/3836208?api_key=iIulBulltgU6a56xZRHN4H3l9WmuAYTsLGpBGhQ2"
    },
    "id": "3836208",
    "neo_reference_id": "3836208",
    "name": "(2018 VR8)",
    "designation": "2018 VR8",
    "nasa_jpl_url": "http://ssd.jpl.nasa.gov/sbdb.cgi?sstr=3836208",
    "absolute_magnitude_h": 25.6,
    "estimated_diameter": {
        "kilometers": {
            "estimated_diameter_min": 0.0201629919,
            "estimated_diameter_max": 0.0450858206
        },
        "meters": {
            "estimated_diameter_min": 20.1629919443,
            "estimated_diameter_max": 45.0858206172
        },
        "miles": {
            "estimated_diameter_min": 0.0125286985,
            "estimated_diameter_max": 0.0280150214
        },
        "feet": {
            "estimated_diameter_min": 66.1515504905,
            "estimated_diameter_max": 147.9193637137
        }
    },
    "is_potentially_hazardous_asteroid": false,
    "close_approach_data": [
        {
            "close_approach_date": "2018-11-14",
            "close_approach_date_full": "2018-Nov-14 11:53",
            "epoch_date_close_approach": 1542196380000,
            "relative_velocity": {
                "kilometers_per_second": "12.273037545",
                "kilometers_per_hour": "44182.9351621343",
                "miles_per_hour": "27453.5576844939"
            },
            "miss_distance": {
                "astronomical": "0.048294014",
                "lunar": "18.786371446",
                "kilometers": "7224681.62815018",
                "miles": "4489208.996345284"
            },
            "orbiting_body": "Earth"
        },
        {
            "close_approach_date": "2019-03-16",
            "close_approach_date_full": "2019-Mar-16 04:11",
            "epoch_date_close_approach": 1552709460000,
            "relative_velocity": {
                "kilometers_per_second": "8.8603648698",
                "kilometers_per_hour": "31897.3135312185",
                "miles_per_hour": "19819.7501772174"
            },
            "miss_distance": {
                "astronomical": "0.3980500552",
                "lunar": "154.8414714728",
                "kilometers": "59547440.411302424",
                "miles": "37001063.7094604912"
            },
            "orbiting_body": "Earth"
        },
        {
            "close_approach_date": "2104-11-01",
            "close_approach_date_full": "2104-Nov-01 11:44",
            "epoch_date_close_approach": 4254983040000,
            "relative_velocity": {
                "kilometers_per_second": "16.95342271",
                "kilometers_per_hour": "61032.3217560148",
                "miles_per_hour": "37923.1112600082"
            },
            "miss_distance": {
                "astronomical": "0.2391408581",
                "lunar": "93.0257938009",
                "kilometers": "35774963.001732247",
                "miles": "22229531.2122171286"
            },
            "orbiting_body": "Earth"
        }
    ],
    "orbital_data": {
        "orbit_id": "1",
        "orbit_determination_date": "2018-11-13 21:12:24",
        "first_observation_date": "2018-11-09",
        "last_observation_date": "2018-11-14",
        "data_arc_in_days": 5,
        "observations_used": 22,
        "orbit_uncertainty": "8",
        "minimum_orbit_intersection": ".0378701",
        "jupiter_tisserand_invariant": "4.556",
        "epoch_osculation": "2458433.5",
        "eccentricity": ".3318057715076703",
        "semi_major_axis": "1.434548625312722",
        "inclination": "20.29238538779043",
        "ascending_node_longitude": "227.5993980439446",
        "orbital_period": "627.5832405098155",
        "perihelion_distance": ".958557111925566",
        "perihelion_argument": "224.6336395783393",
        "aphelion_distance": "1.910540138699877",
        "perihelion_time": "2458473.198585152248",
        "mean_anomaly": "337.227736924269",
        "mean_motion": ".57362908497613",
        "equinox": "J2000",
        "orbit_class": {
            "orbit_class_type": "APO",
            "orbit_class_description": "Near-Earth asteroid orbits which cross the Earth’s orbit similar to that of 1862 Apollo",
            "orbit_class_range": "a (semi-major axis) > 1.0 AU; q (perihelion) < 1.017 AU"
        }
    },
    "is_sentry_object": false
}